              M50 Cartesian                         M50 Keplerian  
    -----------------------------------       --------------------------------
     X    =        2753650.75                 A    =         6788775.25  meter
     Y    =       -6162899.28  meter          E    =           .0009014
     Z    =        -690205.99                 I    =           52.00573
     XDOT =       4083.667004                 Wp   =          131.97114
     YDOT =       2489.404760  meter/sec      RA   =          109.49447  deg
     ZDOT =      -5991.771270                 TA   =           55.44502
                                              MA   =           55.35999
                                              Ha   =            220.908  n.mi
                                              Hp   =            214.512
 
              M50 Cartesian                         J2K Cartesian  
    -----------------------------------       --------------------------------
     X    =        9034287.22                 X    =         2825713.91
     Y    =      -20219485.81  feet           Y    =        -6131703.29  meter
     Z    =       -2264455.35                 Z    =         -676653.49
     XDOT =      13397.857624                 XDOT =        4084.632016
     YDOT =       8167.338451  feet/sec       YDOT =        2535.075631  meter/sec
     ZDOT =     -19658.042224                 ZDOT =       -5971.931685
 
              TDR Cartesian                         TDR Cartesian  
    -----------------------------------       --------------------------------
     X    =        7791907.81                 X    =         2374973.50
     Y    =      -20736439.91  feet           Y    =        -6320466.88  meter
     Z    =       -2204527.81                 Z    =         -671940.08
     XDOT =      12487.033250                 XDOT =        3806.047735
     YDOT =       6752.841542  feet/sec       YDOT =        2058.266102  meter/sec
     ZDOT =     -19572.241111                 ZDOT =       -5965.619091
  
  
    The mean element set is posted at the UTC for which position is
    just north of the next ascending node relative to the above
    vector time
 
 
    TWO LINE MEAN ELEMENT SET
  
    ISS
    1 25544U 98067A   16086.53088950  .00016717  00000-0  10270-3 0  9017
    2 25544  51.6409 110.2832 0002081 355.8086   4.3049 15.54252156 32124
  
  
    Satellite: ISS
    Catalog Number: 25544
    Epoch time:      16086.53088950   =   yrday.fracday
    Element set:     901
    Inclination:       51.6409  deg
    RA of node:       110.2832  deg
    Eccentricity:     .0002081     
    Arg of perigee:   355.8086  deg
    Mean anomaly:       4.3049  deg
    Mean motion:   15.54252156  rev/day
    Decay rate:    1.67170E-04  rev/day^2
    Epoch rev:            3212
    Checksum:              285
 
 
    Coasting Arc #3 (Orbit 3227)
    ---------------------------------------
 
    Vector Time (GMT): 2016/087/12:00:00.000
    Vector Time (MET): N/A
    Weight (LBS)     : 917037.0
 
              M50 Cartesian                         M50 Keplerian  
    -----------------------------------       --------------------------------
     X    =       -3313940.24                 A    =         6786616.61  meter
     Y    =        5420520.04  meter          E    =           .0014705
     Z    =        2363852.80                 I    =           52.00821
     XDOT =      -3243.520054                 Wp   =           64.69128
     YDOT =      -4355.457937  meter/sec      RA   =          104.54614  deg
     ZDOT =       5420.190844                 TA   =          321.57053
                                              MA   =          321.67517
                                              Ha   =            221.047  n.mi
                                              Hp   =            214.413
 
              M50 Cartesian                         J2K Cartesian  
    -----------------------------------       --------------------------------
     X    =      -10872507.36                 X    =        -3385790.22
     Y    =       17783858.40  feet           Y    =         5383059.90  meter
     Z    =        7755422.57                 Z    =         2347579.21
     XDOT =     -10641.469992                 XDOT =       -3220.904348
     YDOT =     -14289.560161  feet/sec       YDOT =       -4391.602033  meter/sec
     ZDOT =      17782.778360                 ZDOT =        5404.489961
 
              TDR Cartesian                         TDR Cartesian  
    -----------------------------------       --------------------------------
     X    =       -9492855.27                 X    =        -2893422.29
     Y    =       18586792.62  feet           Y    =         5665254.39  meter
     Z    =        7683778.62                 Z    =         2342015.72
     XDOT =     -10488.242129                 XDOT =       -3196.816201
     YDOT =     -12707.666739  feet/sec       YDOT =       -3873.296822  meter/sec
     ZDOT =      17715.282459                 ZDOT =        5399.618094
  
  
    The mean element set is posted at the UTC for which position is
    just north of the next ascending node relative to the above
    vector time
 
 
    TWO LINE MEAN ELEMENT SET
  
    ISS
    1 25544U 98067A   16087.55963353  .00016717  00000-0  10270-3 0  9020
    2 25544  51.6407 105.1539 0002296   1.8673 358.2488 15.54262542 32282
  
  
    Satellite: ISS
    Catalog Number: 25544
    Epoch time:      16087.55963353   =   yrday.fracday
    Element set:     902
    Inclination:       51.6407  deg
    RA of node:       105.1539  deg
    Eccentricity:     .0002296     
    Arg of perigee:     1.8673  deg
    Mean anomaly:     358.2488  deg
    Mean motion:   15.54262542  rev/day
    Decay rate:    1.67170E-04  rev/day^2
    Epoch rev:            3228
    Checksum:              316
 
 
    Coasting Arc #4 (Orbit 3242)
    ---------------------------------------
 
    Vector Time (GMT): 2016/088/12:00:00.000
    Vector Time (MET): N/A
    Weight (LBS)     : 917037.0
 
              M50 Cartesian                         M50 Keplerian  
    -----------------------------------       --------------------------------
     X    =        3729295.02                 A    =         6782831.86  meter
     Y    =       -4199414.21  meter          E    =           .0006976
     Z    =       -3811365.64                 I    =           52.00207
     XDOT =       2353.846405                 Wp   =           58.99744
     YDOT =       5933.027028  meter/sec      RA   =           99.59032  deg
     ZDOT =      -4236.160446                 TA   =          166.44739
                                              MA   =          166.42865
                                              Ha   =            220.985  n.mi
                                              Hp   =            214.443
 
              M50 Cartesian                         J2K Cartesian  
    -----------------------------------       --------------------------------
     X    =       12235219.89                 X    =         3794490.87
     Y    =      -13777605.69  feet           Y    =        -4157346.63  meter
     Z    =      -12504480.43                 Z    =        -3793090.71
     XDOT =       7722.593192                 XDOT =        2307.904488
     YDOT =      19465.311773  feet/sec       YDOT =        5959.091977  meter/sec
     ZDOT =     -13898.164194                 ZDOT =       -4224.838178
 
              TDR Cartesian                         TDR Cartesian  
    -----------------------------------       --------------------------------
     X    =       10941560.48                 X    =         3334987.63
     Y    =      -14893061.07  feet           Y    =        -4539405.01  meter
     Z    =      -12424332.64                 Z    =        -3786936.59
     XDOT =       8550.920172                 XDOT =        2606.320469
     YDOT =      17830.153911  feet/sec       YDOT =        5434.630912  meter/sec
     ZDOT =     -13849.976792                 ZDOT =       -4221.472926
  
  
    The mean element set is posted at the UTC for which position is
    just north of the next ascending node relative to the above
    vector time
 
 
    TWO LINE MEAN ELEMENT SET
  
    ISS
    1 25544U 98067A   16088.52407486  .00016717  00000-0  10270-3 0  9039
    2 25544  51.6400 100.3456 0002230   3.3619 356.7548 15.54274182 32435
  
  
    Satellite: ISS
    Catalog Number: 25544
    Epoch time:      16088.52407486   =   yrday.fracday
    Element set:     903
    Inclination:       51.6400  deg
    RA of node:       100.3456  deg
    Eccentricity:     .0002230     
    Arg of perigee:     3.3619  deg
    Mean anomaly:     356.7548  deg
    Mean motion:   15.54274182  rev/day
    Decay rate:    1.67170E-04  rev/day^2
    Epoch rev:            3243
    Checksum:              288
 
 
    Coasting Arc #5 (Orbit 3258)
    ---------------------------------------
 
    Vector Time (GMT): 2016/089/12:00:00.000
    Vector Time (MET): N/A
    Weight (LBS)     : 917037.0
 
              M50 Cartesian                         M50 Keplerian  
    -----------------------------------       --------------------------------
     X    =       -3987562.78                 A    =         6779149.97  meter
     Y    =        2607793.53  meter          E    =           .0006878
     Z    =        4817128.91                 I    =           51.99373
     XDOT =      -1470.030115                 Wp   =          100.84445
     YDOT =      -7065.600199  meter/sec      RA   =           94.62302  deg
     ZDOT =       2603.748753                 TA   =          323.61974
                                              MA   =          323.66647
                                              Ha   =            221.181  n.mi
                                              Hp   =            214.299
 
